{"type": "FeatureCollection", "features": [{"type": "Feature", "properties": {"norad_id": 37846, "name": "GSAT0101 (GALILEO-PFM)", "group": "galileo", "lat": -43.97705830524155, "lon": -52.32839579035993, "alt_km": 23217.89123859152, "timestamp": "2025-12-27T11:23:20.160249+00:00", "meta": {"OBJECT_NAME": "GSAT0101 (GALILEO-PFM)", "OBJECT_ID": "2011-060A", "EPOCH": "2025-12-24T15:10:54.850656", "MEAN_MOTION": 1.70475643, "ECCENTRICITY": 0.00032614, "INCLINATION": 57.05, "RA_OF_ASC_NODE": 346.4975, "ARG_OF_PERICENTER": 321.0017, "MEAN_ANOMALY": 38.9828, "EPHEMERIS_TYPE": 0, "CLASSIFICATION_TYPE": "U", "NORAD_CAT_ID": 37846, "ELEMENT_SET_NO": 999, "REV_AT_EPOCH": 8814, "BSTAR": 0, "MEAN_MOTION_DOT": -6.1e-07, "MEAN_MOTION_DDOT": 0}, "tle": {"line1": "1 37846U 11060A   25358.63257929 -.00000061  00000+0  00000+0 0  9998", "line2": "2 37846  57.0500 346.4975 0003261 321.0017  38.9828  1.70475643 88147"}}, "geometry": {"type": "Point", "coordinates": [-52.32839579035993, -43.97705830524155]}}, {"type": "Feature", "properties": {"norad_id": 37847, "name": "GSAT0102 (GALILEO-FM2)", "group": "galileo", "lat": -8.660206519645577, "lon": -19.257503602692932, "alt_km": 23211.110028216586, "timestamp": "2025-12-27T11:23:20.160271+00:00", "meta": {"OBJECT_NAME": "GSAT0102 (GALILEO-FM2)", "OBJECT_ID": "2011-060B", "EPOCH": "2025-12-22T11:58:40.586304", "MEAN_MOTION": 1.70475957, "ECCENTRICITY": 0.00051595, "INCLINATION": 57.0512, "RA_OF_ASC_NODE": 346.5558, "ARG_OF_PERICENTER": 313.0615, "MEAN_ANOMALY": 223.0229, "EPHEMERIS_TYPE": 0, "CLASSIFICATION_TYPE": "U", "NORAD_CAT_ID": 37847, "ELEMENT_SET_NO": 999, "REV_AT_EPOCH": 8811, "BSTAR": 0, "MEAN_MOTION_DOT": -6.5e-07, "MEAN_MOTION_DDOT": 0}, "tle": {"line1": "1 37847U 11060B   25356.49908086 -.00000065  00000+0  00000+0 0  9992", "line2": "2 37847  57.0512 346.5558 0005159 313.0615 223.0229  1.70475957 88119"}}, "geometry": {"type": "Point", "coordinates": [-19.257503602692932, -8.660206519645577]}}, {"type": "Feature", "properties": {"norad_id": 38857, "name": "GSAT0103 (GALILEO-FM3)", "group": "galileo", "lat": -54.585822200337645, "lon": 32.78441972411331, "alt_km": 23219.40649052622, "timestamp": "2025-12-27T11:23:20.160285+00:00", "meta": {"OBJECT_NAME": "GSAT0103 (GALILEO-FM3)", "OBJECT_ID": "2012-055A", "EPOCH": "2025-12-22T21:54:43.252704", "MEAN_MOTION": 1.70473351, "ECCENTRICITY": 0.0002995, "INCLINATION": 55.698, "RA_OF_ASC_NODE": 106.3873, "ARG_OF_PERICENTER": 269.858, "MEAN_ANOMALY": 90.0891, "EPHEMERIS_TYPE": 0, "CLASSIFICATION_TYPE": "U", "NORAD_CAT_ID": 38857, "ELEMENT_SET_NO": 999, "REV_AT_EPOCH": 8200, "BSTAR": 0, "MEAN_MOTION_DOT": 1e-07, "MEAN_MOTION_DDOT": 0}, "tle": {"line1": "1 38857U 12055A   25356.91300061  .00000010  00000+0  00000+0 0  9994", "line2": "2 38857  55.6980 106.3873 0002995 269.8580  90.0891  1.70473351 82005"}}, "geometry": {"type": "Point", "coordinates": [32.78441972411331, -54.585822200337645]}}, {"type": "Feature", "properties": {"norad_id": 40128, "name": "GSAT0201 (GALILEO 5)", "group": "galileo", "lat": -2.166457578436364, "lon": -81.42196248144705, "alt_km": 26202.63745916091, "timestamp": "2025-12-27T11:23:20.160298+00:00", "meta": {"OBJECT_NAME": "GSAT0201 (GALILEO 5)", "OBJECT_ID": "2014-050A", "EPOCH": "2025-12-25T20:43:24.583008", "MEAN_MOTION": 1.85519608, "ECCENTRICITY": 0.16491868, "INCLINATION": 49.0615, "RA_OF_ASC_NODE": 280.5285, "ARG_OF_PERICENTER": 172.7701, "MEAN_ANOMALY": 189.9925, "EPHEMERIS_TYPE": 0, "CLASSIFICATION_TYPE": "U", "NORAD_CAT_ID": 40128, "ELEMENT_SET_NO": 999, "REV_AT_EPOCH": 7510, "BSTAR": 0, "MEAN_MOTION_DOT": -4.2e-07, "MEAN_MOTION_DDOT": 0}, "tle": {"line1": "1 40128U 14050A   25359.86347897 -.00000042  00000+0  00000+0 0  9996", "line2": "2 40128  49.0615 280.5285 1649186 172.7701 189.9925  1.85519608 75101"}}, "geometry": {"type": "Point", "coordinates": [-81.42196248144705, -2.166457578436364]}}, {"type": "Feature", "properties": {"norad_id": 40129, "name": "GSAT0202 (GALILEO 6)", "group": "galileo", "lat": -9.828408976005878, "lon": 108.17361770149019, "alt_km": 17168.752882811757, "timestamp": "2025-12-27T11:23:20.160310+00:00", "meta": {"OBJECT_NAME": "GSAT0202 (GALILEO 6)", "OBJECT_ID": "2014-050B", "EPOCH": "2025-12-26T02:52:20.313984", "MEAN_MOTION": 1.85520261, "ECCENTRICITY": 0.1649751, "INCLINATION": 49.0773, "RA_OF_ASC_NODE": 279.6017, "ARG_OF_PERICENTER": 173.5155, "MEAN_ANOMALY": 188.9707, "EPHEMERIS_TYPE": 0, "CLASSIFICATION_TYPE": "U", "NORAD_CAT_ID": 40129, "ELEMENT_SET_NO": 999, "REV_AT_EPOCH": 7727, "BSTAR": 0, "MEAN_MOTION_DOT": -4.2e-07, "MEAN_MOTION_DDOT": 0}, "tle": {"line1": "1 40129U 14050B   25360.11967956 -.00000042  00000+0  00000+0 0  9991", "line2": "2 40129  49.0773 279.6017 1649751 173.5155 188.9707  1.85520261 77273"}}, "geometry": {"type": "Point", "coordinates": [108.17361770149019, -9.828408976005878]}}, {"type": "Feature", "properties": {"norad_id": 40544, "name": "GSAT0203 (GALILEO 7)", "group": "galileo", "lat": 55.60536048813378, "lon": 58.983060358472976, "alt_km": 23234.11940652398, "timestamp": "2025-12-27T11:23:20.160329+00:00", "meta": {"OBJECT_NAME": "GSAT0203 (GALILEO 7)", "OBJECT_ID": "2015-017A", "EPOCH": "2025-12-26T18:10:04.465632", "MEAN_MOTION": 1.70475666, "ECCENTRICITY": 0.000646, "INCLINATION": 56.8428, "RA_OF_ASC_NODE": 346.298, "ARG_OF_PERICENTER": 275.3549, "MEAN_ANOMALY": 84.5807, "EPHEMERIS_TYPE": 0, "CLASSIFICATION_TYPE": "U", "NORAD_CAT_ID": 40544, "ELEMENT_SET_NO": 999, "REV_AT_EPOCH": 6626, "BSTAR": 0, "MEAN_MOTION_DOT": -6.1e-07, "MEAN_MOTION_DDOT": 0}, "tle": {"line1": "1 40544U 15017A   25360.75699613 -.00000061  00000+0  00000+0 0  9999", "line2": "2 40544  56.8428 346.2980 0006460 275.3549  84.5807  1.70475666 66269"}}, "geometry": {"type": "Point", "coordinates": [58.983060358472976, 55.60536048813378]}}, {"type": "Feature", "properties": {"norad_id": 40545, "name": "GSAT0204 (GALILEO 8)", "group": "galileo", "lat": -54.47390726114867, "lon": -79.95435582461434, "alt_km": 23210.48378373157, "timestamp": "2025-12-27T11:23:20.160353+00:00", "meta": {"OBJECT_NAME": "GSAT0204 (GALILEO 8)", "OBJECT_ID": "2015-017B", "EPOCH": "2025-12-20T13:26:28.826304", "MEAN_MOTION": 1.70475697, "ECCENTRICITY": 0.0006133, "INCLINATION": 56.8522, "RA_OF_ASC_NODE": 346.4847, "ARG_OF_PERICENTER": 266.5447, "MEAN_ANOMALY": 93.3948, "EPHEMERIS_TYPE": 0, "CLASSIFICATION_TYPE": "U", "NORAD_CAT_ID": 40545, "ELEMENT_SET_NO": 999, "REV_AT_EPOCH": 2920, "BSTAR": 0, "MEAN_MOTION_DOT": -7e-07, "MEAN_MOTION_DDOT": 0}, "tle": {"line1": "1 40545U 15017B   25354.56005586 -.00000070  00000+0  00000+0 0  9992", "line2": "2 40545  56.8522 346.4847 0006133 266.5447  93.3948  1.70475697 29206"}}, "geometry": {"type": "Point", "coordinates": [-79.95435582461434, -54.47390726114867]}}, {"type": "Feature", "properties": {"norad_id": 40889, "name": "GSAT0205 (GALILEO 9)", "group": "galileo", "lat": 48.286627818690285, "lon": -81.84204678453722, "alt_km": 23199.578761243596, "timestamp": "2025-12-27T11:23:20.160366+00:00", "meta": {"OBJECT_NAME": "GSAT0205 (GALILEO 9)", "OBJECT_ID": "2015-045A", "EPOCH": "2025-12-23T06:16:38.782272", "MEAN_MOTION": 1.70473104, "ECCENTRICITY": 0.00062228, "INCLINATION": 55.0001, "RA_OF_ASC_NODE": 226.4673, "ARG_OF_PERICENTER": 42.5636, "MEAN_ANOMALY": 317.5856, "EPHEMERIS_TYPE": 0, "CLASSIFICATION_TYPE": "U", "NORAD_CAT_ID": 40889, "ELEMENT_SET_NO": 999, "REV_AT_EPOCH": 6401, "BSTAR": 0, "MEAN_MOTION_DOT": 7.3e-07, "MEAN_MOTION_DDOT": 0}, "tle": {"line1": "1 40889U 15045A   25357.26155998  .00000073  00000+0  00000+0 0  9999", "line2": "2 40889  55.0001 226.4673 0006222  42.5636 317.5856  1.70473104 64013"}}, "geometry": {"type": "Point", "coordinates": [-81.84204678453722, 48.286627818690285]}}, {"type": "Feature", "properties": {"norad_id": 40890, "name": "GSAT0206 (GALILEO 10)", "group": "galileo", "lat": -50.23391049173782, "lon": 169.03379247212794, "alt_km": 23232.280509750068, "timestamp": "2025-12-27T11:23:20.160377+00:00", "meta": {"OBJECT_NAME": "GSAT0206 (GALILEO 10)", "OBJECT_ID": "2015-045B", "EPOCH": "2025-12-25T05:48:23.394816", "MEAN_MOTION": 1.7047315, "ECCENTRICITY": 0.0004109, "INCLINATION": 54.9985, "RA_OF_ASC_NODE": 226.4076, "ARG_OF_PERICENTER": 41.5093, "MEAN_ANOMALY": 318.6128, "EPHEMERIS_TYPE": 0, "CLASSIFICATION_TYPE": "U", "NORAD_CAT_ID": 40890, "ELEMENT_SET_NO": 999, "REV_AT_EPOCH": 6407, "BSTAR": 0, "MEAN_MOTION_DOT": 7e-07, "MEAN_MOTION_DDOT": 0}, "tle": {"line1": "1 40890U 15045B   25359.24193744  .00000070  00000+0  00000+0 0  9999", "line2": "2 40890  54.9985 226.4076 0004109  41.5093 318.6128  1.70473150 64070"}}, "geometry": {"type": "Point", "coordinates": [169.03379247212794, -50.23391049173782]}}, {"type": "Feature", "properties": {"norad_id": 41174, "name": "GSAT0209 (GALILEO 12)", "group": "galileo", "lat": -5.848128289962047, "lon": -70.02376966480536, "alt_km": 23229.96759487128, "timestamp": "2025-12-27T11:23:20.160388+00:00", "meta": {"OBJECT_NAME": "GSAT0209 (GALILEO 12)", "OBJECT_ID": "2015-079A", "EPOCH": "2025-12-21T21:22:17.332896", "MEAN_MOTION": 1.70474556, "ECCENTRICITY": 0.00025231, "INCLINATION": 55.7178, "RA_OF_ASC_NODE": 106.13, "ARG_OF_PERICENTER": 342.7574, "MEAN_ANOMALY": 17.2091, "EPHEMERIS_TYPE": 0, "CLASSIFICATION_TYPE": "U", "NORAD_CAT_ID": 41174, "ELEMENT_SET_NO": 999, "REV_AT_EPOCH": 6175, "BSTAR": 0, "MEAN_MOTION_DOT": 5e-08, "MEAN_MOTION_DDOT": 0}, "tle": {"line1": "1 41174U 15079A   25355.89047839  .00000005  00000+0  00000+0 0  9990", "line2": "2 41174  55.7178 106.1300 0002523 342.7574  17.2091  1.70474556 61755"}}, "geometry": {"type": "Point", "coordinates": [-70.02376966480536, -5.848128289962047]}}]}